STARLINK-2123
1 17401C 21005BE  21326.11874066  .00009876  00000-0  66163-3 0  3260
2 17401  53.0540 233.2143 0002066  58.9332  85.1729 15.06392571    19
